Averaged GRF (mean+var per channel, 100-node half-gait-cycle)
Column order matches model.ext_forces: f_foot_l_x/y/z then f_foot_r_x/y/z
version=1
nRows=100
nColumns=12
inDegrees=no

Units: Newtons
endheader
1_ground_force_vx_mean	1_ground_force_vx_var	1_ground_force_vy_mean	1_ground_force_vy_var	1_ground_force_vz_mean	1_ground_force_vz_var	ground_force_vx_mean	ground_force_vx_var	ground_force_vy_mean	ground_force_vy_var	ground_force_vz_mean	ground_force_vz_var
77.036597859	184.415847552	926.658335213	1720.925863866	75.294954380	101.319503001	3.660726112	19.422167057	-14.232110951	129.260906598	2.144418203	59.713314415
88.965053343	219.264012942	954.573240099	1821.831478287	78.674045148	101.852519310	6.605512491	21.792886405	-12.716327646	128.608860014	3.544584942	59.222323772
101.554081503	260.153121747	977.871793617	1844.420837092	81.395388087	101.696303667	10.149863355	25.738060388	-7.260044802	136.702681220	5.513069145	59.054650932
114.522660449	303.511580312	994.641882596	1786.603225621	83.204468264	101.769126180	13.950547986	29.510642828	3.955054326	211.969136377	8.061233010	58.346806084
127.498790287	340.629839604	1003.069634482	1745.087676069	83.886189639	104.619937417	17.351135290	32.701608941	22.776231317	488.181083149	11.060172205	55.316011025
140.011073606	361.188870655	1001.512277584	1944.102891748	83.263965449	114.153210788	19.403894037	52.679951452	50.789875688	1133.210564022	14.209715357	52.042057584
151.488053284	366.697423806	988.583437559	2660.669304638	81.234342002	131.660272806	18.885741275	111.147234576	88.964918891	2233.508485757	17.047544766	58.450028211
161.257651148	379.265933092	963.254399133	3997.268066956	77.742027813	152.473595438	14.398962480	196.607263106	137.356984116	3647.710788953	18.945574075	81.082873449
168.591252929	423.806407024	924.904718514	5684.226063398	72.754631581	170.258584075	4.849394895	278.437276532	195.288924736	5140.927196604	19.195085276	114.806809614
172.785406883	490.188975568	873.410177694	7222.598179427	66.302028490	181.240288563	-9.931519574	347.799573359	261.609331296	6591.748695764	17.212974357	149.426529623
173.171275305	539.628814432	809.238685100	8321.960088968	58.552277300	185.241962242	-29.016509755	417.012178382	334.611489040	7929.706807420	12.705691258	177.357837713
169.093205937	560.261681137	733.619933592	9015.813071655	49.868542223	182.617264456	-50.759577998	497.288769681	411.747986755	9045.511346403	5.698676317	197.050121094
160.067973151	574.833875694	648.624169780	9445.701713738	40.758173366	173.563553945	-73.190333715	583.617617136	489.669767625	9854.024818568	-3.479022502	212.031933304
146.101677503	606.021469327	557.256904956	9700.486586046	31.774980816	159.034972415	-94.259435172	659.714355609	564.816807407	10370.605699022	-14.197134283	228.238376209
127.794398531	655.064298728	463.287030774	9789.773495150	23.467045990	140.269696842	-112.252818202	711.303836845	634.274416350	10674.954809159	-25.686648657	250.171727231
106.246411335	701.710634835	371.079011649	9667.751025111	16.361937939	119.653432203	-126.072582565	731.016101713	696.138193651	10841.389395204	-37.241292337	275.348162425
83.083567786	715.945321077	285.093398009	9297.087989525	10.798276809	101.324546003	-135.312996388	721.353937353	749.618782908	10917.844134036	-48.276057521	296.205579544
60.264540591	675.676186058	209.231274064	8709.365239885	6.808598429	87.923305924	-139.971867529	693.508488836	794.480614091	10909.977236015	-58.270284477	306.626036718
39.680491008	584.988199697	146.023202921	8034.119434698	4.169813397	79.132441386	-140.397882982	662.569173565	830.795471877	10818.595711738	-66.792088866	305.262350024
22.632572339	470.149218910	96.242703063	7428.525386014	2.567521676	73.909867347	-137.187337306	636.925510735	858.760486737	10651.415493592	-73.562494485	294.810572931
9.682544783	359.336656609	59.240734263	6986.495921949	1.699099819	70.990553903	-131.014324654	616.978309929	878.566226132	10418.533036438	-78.444714092	278.678875160
0.757441681	269.641277772	33.380287830	6723.494002119	1.274434462	69.031198122	-122.550265884	600.736228807	890.460279955	10135.850855091	-81.447820239	259.299281427
-4.702545880	206.203331901	16.432146770	6602.507179030	1.031861867	67.699755950	-112.430819835	586.948826843	894.957737104	9825.083986927	-82.744676436	239.416438728
-7.423264911	165.660234220	6.308230880	6564.811809961	0.798476608	67.063195597	-101.175617711	574.573822350	892.709357834	9510.821305084	-82.565362866	221.889399842
-8.190518692	140.842726126	1.138932833	6557.922520577	0.527638114	67.255853722	-89.250310738	562.889636002	884.655797651	9223.048699719	-81.152500360	209.349976375
-7.701486808	124.878117594	-0.541588097	6548.004042781	0.272033771	68.158434687	-77.094527919	552.081611078	871.808649704	8984.298925001	-78.715432340	202.607061971
-6.516726982	113.713210132	0.126668717	6518.120651531	0.090239888	69.502208465	-65.117947509	545.632414632	855.142842106	8783.638128361	-75.464569088	200.833948311
-5.050431153	105.688235451	2.243974080	6472.089289373	-0.008895379	71.229004913	-53.679947231	547.449477224	835.552551724	8554.169622335	-71.628572408	201.589544524
-3.613769736	98.749591204	5.127235046	6474.703151520	-0.039692445	72.745716401	-43.110009495	554.083295968	813.775224265	8194.798879427	-67.442335701	200.446670237
-2.471484138	90.172402426	8.241685530	6694.839130474	0.012582898	73.406316899	-33.691064768	548.147287677	790.507739921	7668.580682729	-63.140079971	193.957126010
-1.771861395	92.863860110	11.211239624	7346.061482664	0.180240843	74.793157199	-25.597691072	501.642100747	766.506774640	7115.885429407	-58.936830554	183.690295270
-1.463214120	133.241724032	13.817663055	8536.737052767	0.447282392	80.206143125	-18.886297296	400.875364407	742.613100689	6842.057590275	-55.037490361	175.616887960
-1.373494851	203.794040919	15.906456941	10087.231126704	0.753329253	88.808159552	-13.477238540	271.958197572	719.757420018	7087.333209362	-51.639326581	172.967923866
-1.333025465	256.171823464	17.403806345	11588.323275213	1.059435199	98.431330433	-9.138032667	169.827116885	698.896473050	7713.441184642	-48.892994652	172.203364124
-1.265631824	259.748995052	18.317957283	12668.597898900	1.361275628	110.513155354	-5.579724278	119.624595915	680.847588831	8278.830375853	-46.845481384	169.814465811
-1.158466001	224.608857736	18.710416320	13146.741650757	1.629153958	124.377473829	-2.545178586	103.419682798	666.018800436	8503.474987842	-45.444909103	166.103981558
-1.031286380	177.971491332	18.668508541	13059.395408913	1.804628028	133.928924269	0.109407222	98.464059879	654.609855825	8429.844243812	-44.620593570	163.025610819
-0.912293466	138.201941480	18.296358262	12564.175331948	1.840862606	132.673586098	2.474839661	96.182432338	646.744388765	8223.242235058	-44.288568948	162.193695130
-0.822941220	109.827113985	17.714369395	11839.609591530	1.743261133	119.844756549	4.629934465	95.259880688	642.554105467	8016.966464167	-44.377995308	162.456214232
-0.775867299	91.564603365	17.055797085	11055.190578190	1.572465604	103.304910815	6.655941196	95.541784294	642.121815703	7883.696272313	-44.838891023	161.764175369
-0.784175207	80.704318358	16.432558488	10352.206714431	1.401076289	91.387591361	8.646022074	96.529058924	645.498301682	7861.630448374	-45.662189344	159.536155045
-0.854501846	74.393936057	15.894757959	9834.233536537	1.270452466	85.933261732	10.713864183	97.561257838	652.663178006	7970.080073856	-46.882800686	157.476845509
-0.965436008	70.482800907	15.389611848	9535.120019424	1.168808046	84.249091572	12.993550514	98.159358951	663.521431403	8218.243288213	-48.577442554	157.586070127
-1.075134765	67.547304148	14.786518525	9438.910267871	1.061189001	83.123671558	15.641127268	98.083729626	678.012183474	8604.081640880	-50.841238185	160.516010788
-1.147411528	65.011591458	13.943231734	9517.733495464	0.946861889	81.765597976	18.821863416	97.573720927	696.054921409	9117.628583237	-53.742501005	165.808469450
-1.144720864	63.103970214	12.752666239	9757.797213650	0.852098905	81.164936965	22.706111381	97.564818367	717.565443295	9748.236539553	-57.300832654	172.945721224
-1.004078936	62.853769581	11.159690313	10171.921298566	0.790273809	82.921586826	27.459374221	99.649486550	742.382629600	10481.168827221	-61.478714205	182.870892232
-0.637780099	65.930700439	9.150033807	10780.786554070	0.739540012	88.733457025	33.236916122	105.564757292	770.220526687	11308.139980051	-66.196346002	197.910866139
0.058286575	74.342665198	6.782086034	11587.912026607	0.645736101	99.063397406	40.167836157	116.997586345	800.581338891	12227.253003162	-71.342011152	219.254998340
1.207753629	90.207698586	4.270206223	12564.967077329	0.430333275	111.950191737	48.342834970	135.700315098	832.707554588	13227.395872951	-76.775306472	245.248536527
2.952017704	115.543817770	2.085406088	13622.812008904	0.013344409	123.636560464	57.827118486	163.132900194	865.553979815	14247.332627901	-82.312144477	272.699360099
5.398931774	150.835143519	1.021244232	14568.106090207	-0.654323403	131.481170395	68.619698664	199.837873420	897.746749554	15138.875401801	-87.710313910	298.618554621
8.568414164	193.157974709	2.181548366	15100.077287092	-1.573146688	135.850705823	80.624066792	246.238675470	927.681854340	15678.383571708	-92.669823655	323.217181844
12.353921127	234.662482530	7.019489270	14869.891859840	-2.703069657	137.001320748	93.634060001	305.578168292	953.523992607	15645.223481077	-96.855448308	348.406169798
16.429902311	261.639272436	17.328744855	13676.406301345	-3.958708357	132.317523241	107.283293004	391.098294568	973.198260191	15009.691358896	-99.974926564	365.451783855
20.159896216	257.410032239	35.149600079	11671.535666706	-5.167842526	120.609023101	121.127356532	525.359510068	984.493826049	13945.466713505	-101.769856188	360.389360415
22.503952477	213.268248227	62.591077136	9430.192826958	-6.005657856	107.749758445	134.678460752	713.865241907	985.191752192	12715.526386900	-101.961578442	334.677212880
22.000996489	150.910437575	101.368719649	7725.852098587	-5.978383859	101.626771426	147.307603507	924.498326861	973.304156277	11617.798557581	-100.278567400	304.491158084
16.999677699	130.072210614	152.504282500	7116.503018138	-4.483939228	104.593023518	158.196456909	1100.346223138	947.239829259	10849.174616597	-96.486142002	285.876732752
6.337080679	202.082624031	216.016372071	7596.030298490	-1.026034082	114.521141204	166.391633010	1197.565316306	906.137276576	10518.010062604	-90.489019397	280.962324977
-10.125595165	362.600816709	291.025737783	8736.124581468	4.590198794	128.299526582	170.871973315	1203.478756213	849.730392285	10650.988124103	-82.369964131	283.485386514
-31.305155652	570.973257879	375.400643666	10091.385403883	12.131343753	143.099844672	170.747439942	1135.646288067	778.831274254	11124.538441960	-72.463562936	286.708844380
-55.325428957	780.514130410	465.686952046	11312.188018786	21.024235301	156.820946265	165.357805586	1029.263746811	695.371595698	11667.250546723	-61.317726982	285.275826235
-79.871513810	944.848610992	557.315827048	12137.032847716	30.531500344	168.231151298	154.386088821	924.491408698	602.394090844	11995.173420806	-49.614116759	275.049165639
-102.511136970	1033.392616639	645.396525035	12439.123821535	39.925653755	178.736547487	138.178648614	848.032760334	504.095872543	11903.446401245	-38.144004395	251.826766857
-121.203689494	1046.354103983	725.680778958	12259.757607427	48.721880627	191.411590694	117.750773860	797.251074779	405.420312729	11294.069377907	-27.749466417	214.599294715
-134.654366060	1006.870414707	795.061472342	11751.252406455	56.839301474	206.427132918	94.732076206	746.412682462	311.576400423	10198.060919106	-19.089660061	170.000031252
-142.193927910	942.689750087	851.407800644	11070.678726929	64.473890409	220.846305485	71.204977201	664.964854696	227.481003438	8765.414132580	-12.419745137	128.921203152
-143.937566120	878.013642744	894.081965821	10355.001204284	71.780998823	232.998150902	49.278139444	545.919883024	156.358043983	7267.748342979	-7.507029891	99.080903717
-140.378412817	824.290850008	923.041237382	9682.754898460	78.625398136	243.309331837	30.550345240	407.568267472	99.766417978	5973.876402042	-4.016785313	81.476468340
-132.360083779	782.234301072	938.837859999	9117.509560492	84.632657628	251.900184244	15.888063369	277.806109086	57.550695936	5071.014951400	-1.663638051	74.441966545
-120.945779130	744.454422499	942.547776150	8690.375004207	89.379679450	255.597292024	5.429600502	177.329204899	28.246820174	4622.453593590	-0.209055210	76.045287359
-107.310851295	700.644263815	935.695036387	8393.389751089	92.532227155	250.870851268	-1.250882089	113.036499692	9.659342942	4603.128775220	0.589083553	82.749534637
-92.603397611	644.249346275	920.237840951	8193.481570946	93.893945175	239.200688273	-4.929803963	81.096360975	-0.727857737	4955.081002083	0.947427103	91.179154679
-77.759886902	575.482727617	898.235454567	8043.944613266	93.341868864	226.893978758	-6.415917331	73.681406041	-5.217729944	5605.927938836	1.003058478	101.117668037
-63.503036188	499.310175395	871.787483346	7868.071687910	90.836123904	219.360150923	-6.432434933	84.412158581	-5.775907531	6449.134423942	0.842100904	113.905464378
-50.364011158	422.411479623	843.014410938	7530.175794635	86.548912495	218.736909897	-5.590703533	110.449004944	-4.049444719	7311.499146654	0.553518726	129.088941797
-38.699370774	350.576964026	813.781734729	6853.215590689	80.846185819	220.852757753	-4.326920458	151.033892983	-1.306508900	7901.978258381	0.239987199	142.982633222
-28.720351940	286.120239132	785.602596113	5728.943314702	74.196137930	218.543331619	-2.940528676	202.747530186	1.499301326	7879.506857877	-0.021236897	148.975182394
-20.508061549	228.448519905	759.534890627	4271.261433954	67.094225700	209.981939591	-1.650029497	251.615418838	3.708462467	7012.744592805	-0.219521851	140.536112403
-14.025805133	191.371949507	736.236579555	2841.927178503	60.046134627	197.792638709	-0.614832799	270.520036648	4.972627176	5384.159879390	-0.389699003	116.980314192
-9.028696681	203.869004456	716.055688629	1823.342004204	53.566256052	186.053257362	0.066153332	235.082976860	5.261719305	3424.212596396	-0.556194937	88.613318481
-5.188338339	263.079423199	699.136911585	1413.415091030	48.131924218	176.386727529	0.358166838	153.669397539	4.819492027	1737.789745987	-0.708726458	68.503349398
-2.169918283	322.437558546	685.532063942	1494.924868157	44.089192016	169.197512744	0.328640119	72.507909593	4.052012347	720.255806242	-0.832914806	60.591185456
0.317700625	339.252727875	675.201280573	1769.756297475	41.547658265	165.680987197	0.135408753	28.278196779	3.340325118	319.585839014	-0.920057443	59.112611156
2.503451471	308.005734001	668.046285512	1952.675047366	40.369722225	164.161423918	-0.082414709	15.734255976	2.844709566	227.589456929	-0.969310081	58.708277328
4.552781561	253.484567071	664.045457833	1902.207179223	40.296744575	159.015866530	-0.277351655	14.240264229	2.519557041	216.815234171	-0.981001419	57.525341442
6.586837062	202.574354797	663.217259741	1645.407097718	41.035140118	147.363895066	-0.448791582	14.185462178	2.280945832	211.483594009	-0.943800678	55.565276700
8.701072175	166.476021167	665.679674497	1320.678434637	42.309827992	130.326305477	-0.605824341	14.270194215	2.071861475	202.718560925	-0.853092737	53.450624750
10.981451848	144.810626626	671.564442602	1067.398890061	43.895640689	113.468057417	-0.754708506	14.800010508	1.866106452	192.604505970	-0.716369796	52.099628510
13.506706252	133.429823465	680.932744741	941.995899505	45.650242682	101.777149507	-0.899318428	15.798283880	1.620370309	181.904741132	-0.554096119	51.951106611
16.356775804	127.735491883	693.750802265	922.566489369	47.521766136	95.523244262	-1.047950642	17.093793031	1.250619186	170.652964221	-0.378760109	52.730934185
19.628707551	124.432821633	709.916948413	961.676872182	49.540583948	92.612405146	-1.208949333	18.436424163	0.632756772	159.131973615	-0.194880418	53.923029798
23.462606893	121.867774164	729.294143980	1018.278059886	51.772454825	91.496608909	-1.373128359	19.519391897	-0.359764202	147.939481330	-0.022877335	55.227185119
28.029935536	119.689862271	751.716414841	1071.897125286	54.284442817	91.705173209	-1.505298737	20.090980205	-1.807398039	137.969637199	0.111427905	56.509457381
33.502605609	118.671493300	776.982924144	1125.078377387	57.139679377	92.994285725	-1.541424357	20.044839771	-3.724733551	130.179632486	0.197012662	57.703817457
40.025674897	120.465131586	804.798550339	1199.758664894	60.379916875	94.898883946	-1.384504359	19.491430593	-6.057618480	125.323648250	0.265108511	58.870364688
47.692346474	126.988347900	834.707399901	1315.220533472	63.989392028	96.644612361	-0.908366341	18.769090874	-8.659994328	123.732153154	0.400377232	59.946189180
56.531435929	139.965298592	866.002313930	1469.459602593	67.855171477	98.334408154	0.028845494	18.279845808	-11.256179296	125.039357498	0.706751214	60.413729635
66.506793013	160.836786156	897.629004948	1640.895078324	71.780238142	100.405794621	1.563058096	18.456909820	-13.370622352	127.894027258	1.281094789	60.102793178
